ONEWEB-0269             
1 48987U 21060W   24034.54868773  .00000060  00000+0  12220-3 0  9991
2 48987  87.9048  40.8758 0001806  92.5554 267.5784 13.16595855125859
ONEWEB-0270             
1 48988U 21060X   24034.56611855  .00000016  00000+0  79774-5 0  9991
2 48988  87.9043  40.8607 0002381  80.4084 279.7315 13.16595857125892
ONEWEB-0271             
1 48989U 21060Y   24034.55343476  .00000088  00000+0  19697-3 0  9997
2 48989  87.9044  40.8382 0002275  88.1338 272.0054 13.16593191125898
ONEWEB-0272             
1 48990U 21060Z   24034.49960436 -.00000015  00000+0 -72506-4 0  9994
2 48990  87.9045  40.8759 0002171  90.8702 269.2678 13.16592928125830
ONEWEB-0273             
1 48991U 21060AA  24034.52178090  .00000037  00000+0  61872-4 0  9992
2 48991  87.9042  40.8591 0002060  86.0682 274.0684 13.16593617125818
ONEWEB-0274             
1 48992U 21060AB  24034.54710296  .00000049  00000+0  95801-4 0  9997
2 48992  87.9051  40.8590 0002247 105.2864 254.8516 13.16593171125850
ONEWEB-0275             
1 48993U 21060AC  24034.53602016  .00000103  00000+0  23460-3 0  9999
2 48993  87.9043  40.8535 0002024  87.5299 272.6063 13.16592378125783
ONEWEB-0276             
1 48994U 21060AD  24034.56927303 -.00000055  00000+0 -17814-3 0  9996
2 48994  87.9045  40.8423 0002165  83.6837 276.4540 13.16594032125807
ONEWEB-0277             
1 48995U 21060AE  24034.50594609  .00000004  00000+0 -22072-4 0  9996
2 48995  87.9043  40.8938 0002432  85.8060 274.3349 13.16593651125783
ONEWEB-0278             
1 48996U 21060AF  24034.57243758  .00000016  00000+0  74019-5 0  9991
2 48996  87.9044  40.8386 0001552  82.9356 277.1951 13.16595389125926
ONEWEB-0279             
1 48997U 21060AG  24034.50436275 -.00000005  00000+0 -47533-4 0  9993
2 48997  87.9043  40.8505 0001857  89.6294 270.5050 13.16593471125840
ONEWEB-0280             
1 48998U 21060AH  24034.51861550  .00000037  00000+0  62054-4 0  9991
2 48998  87.9043  40.8478 0002536  89.7583 270.3838 13.16593904125783
ONEWEB-0281             
1 48999U 21060AJ  24034.52493557  .00000055  00000+0  10933-3 0  9999
2 48999  87.9041  40.8494 0001885  97.1562 262.9783 13.16592681125851
ONEWEB-0282             
1 49000U 21060AK  24034.55502948  .00000045  00000+0  84780-4 0  9992
2 49000  87.9046  40.8601 0002168  81.5517 278.5859 13.16594518125838
ONEWEB-0283             
1 49001U 21060AL  24034.54395661  .00000142  00000+0  33799-3 0  9995
2 49001  87.9043  40.8702 0002177  90.5726 269.5654 13.16595717125846
ONEWEB-0284             
1 49002U 21060AM  24034.53760043  .00000109  00000+0  25210-3 0  9997
2 49002  87.9035  40.8630 0001992  84.1664 275.9694 13.16592969125821
ONEWEB-0285             
1 49075U 21075A   24034.37927622 -.00000344  00000+0 -99277-3 0  9990
2 49075  87.9036 162.7348 0001646 102.4676 257.6636 13.12442046121774
ONEWEB-0286             
1 49076U 21075B   24034.42678932  .00000373  00000+0  10011-2 0  9992
2 49076  87.9034 162.7325 0001285 117.1692 242.9567 13.12441073121137
ONEWEB-0287             
1 49077U 21075C   24034.40608615  .00000111  00000+0  25291-3 0  9999
2 49077  87.9237 177.8402 0001160  95.9343 264.1921 13.17649585119741
ONEWEB-0288             
1 49078U 21075D   24034.41091321  .00000548  00000+0  14885-2 0  9991
2 49078  87.9037 162.7402 0002019 113.7626 246.3715 13.12444232121754
ONEWEB-0289             
1 49079U 21075E   24034.43454598 -.00000376  00000+0 -10011-2 0  9991
2 49079  87.9237 177.8602 0001765 101.5937 258.5393 13.17648752120320
ONEWEB-0290             
1 49080U 21075F   24034.41715745  .00000037  00000+0  61176-4 0  9997
2 49080  87.9236 177.8265 0001380  83.9598 276.1691 13.17649401119737
ONEWEB-0291             
1 49081U 21075G   24034.40134275  .00000103  00000+0  23136-3 0  9997
2 49081  87.9233 177.8573 0001242  93.0249 267.1025 13.17650604119726
ONEWEB-0293             
1 49082U 21075H   24034.42663829  .00000052  00000+0  10069-3 0  9996
2 49082  87.9236 177.8596 0001409  89.9256 270.2036 13.17649909119758
ONEWEB-0294             
1 49083U 21075J   24034.34103665  .00000499  00000+0  13518-2 0  9991
2 49083  87.9035 162.7529 0001212  77.8766 282.2498 13.12443280121138
ONEWEB-0295             
1 49084U 21075K   24034.42823629  .00000033  00000+0  51385-4 0  9990
2 49084  87.9237 177.8348 0001035  99.3736 260.7513 13.17649187119717
ONEWEB-0296             
1 49085U 21075L   24034.39978814  .00000089  00000+0  21208-3 0  9995
2 49085  87.9037 162.7399 0000805  94.3659 265.7561 13.12442831121148
ONEWEB-0297             
1 49086U 21075M   24034.43155164  .00000221  00000+0  58001-3 0  9995
2 49086  87.9046 162.7301 0001605 108.0246 252.1058 13.12440927121758
ONEWEB-0298             
1 49087U 21075N   24034.43139315  .00000123  00000+0  28308-3 0  9994
2 49087  87.9238 177.8537 0001325 105.0547 255.0731 13.17651057119749
ONEWEB-0299             
1 49088U 21075P   24034.43297352  .00000071  00000+0  15055-3 0  9998
2 49088  87.9233 177.8288 0001252 108.2010 251.9258 13.17650178119727
ONEWEB-0300             
1 49089U 21075Q   24034.42202705  .00000444  00000+0  11979-2 0  9990
2 49089  87.9035 162.7345 0001692 115.1030 245.0274 13.12441786121770
ONEWEB-0301             
1 49090U 21075R   24034.40614523  .00000270  00000+0  71456-3 0  9999
2 49090  87.9034 162.7396 0001928 109.0996 251.0342 13.12442941121139
ONEWEB-0302             
1 49091U 21075S   24034.39343882 -.00000081  00000+0 -26034-3 0  9999
2 49091  87.9036 162.7394 0001331 100.1292 259.9987 13.12447065121111
ONEWEB-0304             
1 49092U 21075T   24034.48360872  .00000070  00000+0  14696-3 0  9995
2 49092  87.9238 177.8291 0001207 100.3957 259.7311 13.17649869119703
ONEWEB-0305             
1 49093U 21075U   24034.47568069  .00000049  00000+0  92723-4 0  9997
2 49093  87.9234 177.8212 0001106 116.7673 243.3571 13.17650452119737
ONEWEB-0308             
1 49094U 21075V   24034.38707669 -.00000283  00000+0 -82200-3 0  9999
2 49094  87.9035 162.7417 0001666 105.3421 254.7892 13.12442240121120
ONEWEB-0309             
1 49095U 21075W   24034.40450294  .00000099  00000+0  22101-3 0  9999
2 49095  87.9239 177.8354 0001330  72.5102 287.6175 13.17649593119696
ONEWEB-0310             
1 49096U 21075X   24034.40137948  .00000158  00000+0  40320-3 0  9997
2 49096  87.9045 162.7342 0001587  96.9176 263.2133 13.12443361121751
ONEWEB-0311             
1 49097U 21075Y   24034.41081548  .00000078  00000+0  16899-3 0  9998
2 49097  87.9238 177.8347 0001130 115.5543 244.5705 13.17651549119745
ONEWEB-0312             
1 49098U 21075Z   24034.42505375 -.00000358  00000+0 -95614-3 0  9994
2 49098  87.9239 177.8652 0000985  86.3615 273.7629 13.17648945119721
ONEWEB-0313             
1 49099U 21075AA  24034.40291928  .00000124  00000+0  28708-3 0  9998
2 49099  87.9239 177.8710 0001117  92.4474 267.6785 13.17649116119711
ONEWEB-0314             
1 49100U 21075AB  24034.39658206  .00000190  00000+0  45646-3 0  9998
2 49100  87.9234 177.8352 0000950  93.2508 266.8732 13.17649833119687
ONEWEB-0315             
1 49101U 21075AC  24034.37598122 -.00000385  00000+0 -11056-2 0  9992
2 49101  87.9032 162.7385 0001598 108.2650 251.8653 13.12443083121736
ONEWEB-0316             
1 49102U 21075AD  24034.31912575 -.00000020  00000+0 -83770-4 0  9999
2 49102  87.9252 147.5703 0001500 112.6054 247.5237 13.18685326123226
ONEWEB-0317             
1 49103U 21075AE  24034.36960579 -.00000198  00000+0 -58492-3 0  9990
2 49103  87.9036 162.7472 0001605  95.6381 264.4931 13.12440673121751
ONEWEB-0318             
1 49104U 21075AF  24034.31597351  .00000059  00000+0  11720-3 0  9997
2 49104  87.9248 147.5679 0001475 116.7037 243.4247 13.18686676123182
ONEWEB-0319             
1 49105U 21075AG  24034.41240508  .00000077  00000+0  16557-3 0  9991
2 49105  87.9238 177.8603 0001074 121.7084 238.4152 13.17649997119726
ONEWEB-0323             
1 49106U 21075AH  24034.36007742  .00000158  00000+0  40282-3 0  9999
2 49106  87.9037 162.7370 0001342 108.1551 251.9724 13.12441220121119
ONEWEB-0329             
1 49107U 21075AJ  24034.42033942  .00002771  00000+0  71018-2 0  9991
2 49107  87.9238 177.8622 0001068  85.6844 274.4409 13.17639152119709
ONEWEB-0330             
1 49108U 21075AK  24034.42190455  .00000011  00000+0 -36546-5 0  9991
2 49108  87.9236 177.8615 0001250  88.8779 271.2495 13.17648931119744
ONEWEB-0292             
1 49186U 21083A   24034.32005825  .00000214  00000+0  55084-3 0  9991
2 49186  87.9013 132.4096 0002278 114.8826 245.2540 13.13470099117392
ONEWEB-0303             
1 49187U 21083B   24034.38867845 -.00000136  00000+0 -37682-3 0  9995
2 49187  87.9248 147.5520 0001549 113.7053 246.4242 13.18685082116006
ONEWEB-0306             
1 49188U 21083C   24034.37919048 -.00000116  00000+0 -32754-3 0  9991
2 49188  87.9244 147.5432 0001847 119.2416 240.8901 13.18688544116040
ONEWEB-0307             
1 49189U 21083D   24034.31529327  .00000016  00000+0  83451-5 0  9992
2 49189  87.9011 132.4084 0001702 104.2812 255.8506 13.13470131117395
ONEWEB-0320             
1 49190U 21083E   24034.30965312  .00000098  00000+0  21556-3 0  9997
2 49190  87.9251 147.5787 0001707 104.2706 255.8615 13.18686783115999
ONEWEB-0321             
1 49191U 21083F   24034.51292826 -.00000088  00000+0 -24915-3 0  9997
2 49191  87.9158  86.5494 0002147  92.6432 267.4947 13.20770388122698
ONEWEB-0322             
1 49192U 21083G   24034.31053676 -.00000025  00000+0 -10411-3 0  9991
2 49192  87.9014 132.3985 0002043  91.9312 268.2051 13.13469470117383
ONEWEB-0324             
1 49193U 21083H   24034.37130085 -.00000025  00000+0 -96190-4 0  9997
2 49193  87.9246 147.5495 0001365 100.3193 259.8093 13.18685736116025
ONEWEB-0325             
1 49194U 21083J   24034.37603719 -.00000134  00000+0 -37175-3 0  9995
2 49194  87.9248 147.5607 0001758 105.6511 254.4815 13.18681954116033
